{
    "week": 291,
    "satellites": [
        {
            "Name": "COSMOS 2545 (760)",
            "Line1": "1 45358U 20018A   24308.89559066 -.00000033  00000+0  00000+0 0  9996",
            "Line2": "2 45358  64.6832 333.0913 0012249 246.1272 113.8001  2.13102735 36085",
            "SatelliteNumber": "45358",
            "Classification": "U",
            "LaunchYear": "20",
            "LaunchNumber": "018",
            "PieceOfLaunch": "A",
            "EpochYear": "24",
            "EpochDay": 308.89559066,
            "FirstDerivativeMeanMotion": -3.3e-07,
            "SecondDerivativeMeanMotion": "00000+0",
            "BSTAR": "00000+0",
            "SetNumber": "999",
            "Inclination": 64.6832,
            "RAAN": 333.0913,
            "Eccentricity": 0.0012249,
            "ArgumentOfPerigee": 246.1272,
            "MeanAnomaly": 113.8001,
            "MeanMotion": 2.13102735,
            "RevolutionNumber": "3608"
        },
        {
            "Name": "COSMOS 2547 (705K)",
            "Line1": "1 46805U 20075A   24309.08217141  .00000041  00000+0  00000+0 0  9992",
            "Line2": "2 46805  64.5966 212.1882 0006886 237.4833 122.5176  2.13102770 31330",
            "SatelliteNumber": "46805",
            "Classification": "U",
            "LaunchYear": "20",
            "LaunchNumber": "075",
            "PieceOfLaunch": "A",
            "EpochYear": "24",
            "EpochDay": 309.08217141,
            "FirstDerivativeMeanMotion": 4.1e-07,
            "SecondDerivativeMeanMotion": "00000+0",
            "BSTAR": "00000+0",
            "SetNumber": "999",
            "Inclination": 64.5966,
            "RAAN": 212.1882,
            "Eccentricity": 0.0006886,
            "ArgumentOfPerigee": 237.4833,
            "MeanAnomaly": 122.5176,
            "MeanMotion": 2.1310277,
            "RevolutionNumber": "3133"
        },
        {
            "Name": "COSMOS 2557 (706K)",
            "Line1": "1 52984U 22075A   24309.24804839 -.00000035  00000+0  00000+0 0  9997",
            "Line2": "2 52984  64.6132 335.1961 0013902 275.3856  84.5132  2.13102161 18145",
            "SatelliteNumber": "52984",
            "Classification": "U",
            "LaunchYear": "22",
            "LaunchNumber": "075",
            "PieceOfLaunch": "A",
            "EpochYear": "24",
            "EpochDay": 309.24804839,
            "FirstDerivativeMeanMotion": -3.5e-07,
            "SecondDerivativeMeanMotion": "00000+0",
            "BSTAR": "00000+0",
            "SetNumber": "999",
            "Inclination": 64.6132,
            "RAAN": 335.1961,
            "Eccentricity": 0.0013902,
            "ArgumentOfPerigee": 275.3856,
            "MeanAnomaly": 84.5132,
            "MeanMotion": 2.13102161,
            "RevolutionNumber": "1814"
        },
        {
            "Name": "COSMOS 2559 (707K)",
            "Line1": "1 54031U 22130A   24309.19139842 -.00000035  00000+0  00000+0 0  9993",
            "Line2": "2 54031  64.5853 335.3108 0008390 229.9129 130.0713  2.13101453 16117",
            "SatelliteNumber": "54031",
            "Classification": "U",
            "LaunchYear": "22",
            "LaunchNumber": "130",
            "PieceOfLaunch": "A",
            "EpochYear": "24",
            "EpochDay": 309.19139842,
            "FirstDerivativeMeanMotion": -3.5e-07,
            "SecondDerivativeMeanMotion": "00000+0",
            "BSTAR": "00000+0",
            "SetNumber": "999",
            "Inclination": 64.5853,
            "RAAN": 335.3108,
            "Eccentricity": 0.000839,
            "ArgumentOfPerigee": 229.9129,
            "MeanAnomaly": 130.0713,
            "MeanMotion": 2.13101453,
            "RevolutionNumber": "1611"
        },
        {
            "Name": "COSMOS 2564 (761)",
            "Line1": "1 54377U 22161A   24308.44315585  .00000040  00000+0  00000+0 0  9992",
            "Line2": "2 54377  64.7380 212.3393 0009017 215.6812 144.3234  2.13102137 15042",
            "SatelliteNumber": "54377",
            "Classification": "U",
            "LaunchYear": "22",
            "LaunchNumber": "161",
            "PieceOfLaunch": "A",
            "EpochYear": "24",
            "EpochDay": 308.44315585,
            "FirstDerivativeMeanMotion": 4e-07,
            "SecondDerivativeMeanMotion": "00000+0",
            "BSTAR": "00000+0",
            "SetNumber": "999",
            "Inclination": 64.738,
            "RAAN": 212.3393,
            "Eccentricity": 0.0009017,
            "ArgumentOfPerigee": 215.6812,
            "MeanAnomaly": 144.3234,
            "MeanMotion": 2.13102137,
            "RevolutionNumber": "1504"
        },
        {
            "Name": "COSMOS 2569 (703K)",
            "Line1": "1 57517U 23114A   24307.99009319  .00000032  00000+0  00000+0 0  9995",
            "Line2": "2 57517  64.9827  92.6096 0008887 290.7501  69.1419  2.13104022  9666",
            "SatelliteNumber": "57517",
            "Classification": "U",
            "LaunchYear": "23",
            "LaunchNumber": "114",
            "PieceOfLaunch": "A",
            "EpochYear": "24",
            "EpochDay": 307.99009319,
            "FirstDerivativeMeanMotion": 3.2e-07,
            "SecondDerivativeMeanMotion": "00000+0",
            "BSTAR": "00000+0",
            "SetNumber": "999",
            "Inclination": 64.9827,
            "RAAN": 92.6096,
            "Eccentricity": 0.0008887,
            "ArgumentOfPerigee": 290.7501,
            "MeanAnomaly": 69.1419,
            "MeanMotion": 2.13104022,
            "RevolutionNumber": "966"
        }
    ]
}